NORAD_CAT_ID,OBJECT_NAME,OBJECT_TYPE,EPOCH,MEAN_MOTION,ECCENTRICITY,INCLINATION,RA_OF_ASC_NODE,ARG_OF_PERICENTER,MEAN_ANOMALY,BSTAR,MEAN_MOTION_DOT,MEAN_MOTION_DDOT,TLE_LINE0,TLE_LINE1,TLE_LINE2,SEMIMAJOR_AXIS,PERIOD,APOGEE,PERIGEE,DECAYED
55269.0,STARLINK-5277,PAYLOAD,2023-11-01 16:30:06,14.98326025,0.0002658,70.002,50.3898,255.0602,105.0263,0.00023196,2.676e-05,0.0,0 STARLINK-5277,1 55269U 23010A   23305.68758030  .00002676  00000-0  23196-3 0  9998,2 55269  70.0020  50.3898 0002658 255.0602 105.0263 14.98326025 44399,6950.205,96.107,573.918,570.223,0.0
55269.0,STARLINK-5277,PAYLOAD,2023-11-02 13:19:49,14.98354744,0.000219,70.0023,48.2019,252.5566,107.5354,0.00081896,9.698e-05,0.0,0 STARLINK-5277,1 55269U 23010A   23306.55543158  .00009698  00000-0  81896-3 0  9990,2 55269  70.0023  48.2019 0002190 252.5566 107.5354 14.98354744 43931,6950.116,96.105,573.503,570.459,0.0
55269.0,STARLINK-5277,PAYLOAD,2023-11-02 16:32:07,14.98335435,0.0003093,70.0009,47.865,256.7417,103.3397,0.00015825,1.796e-05,0.0,0 STARLINK-5277,1 55269U 23010A   23306.68897538  .00001796  00000-0  15825-3 0  9998,2 55269  70.0009  47.8650 0003093 256.7417 103.3397 14.98335435 43954,6950.176,96.107,574.191,569.891,0.0
55269.0,STARLINK-5277,PAYLOAD,2023-11-03 00:32:48,14.98328189,0.000313,70.0023,47.0249,268.1565,91.9236,5.9612e-06,-2.2e-07,0.0,0 STARLINK-5277,1 55269U 23010A   23307.02278371 -.00000022  00000-0  59612-5 0  9991,2 55269  70.0023  47.0249 0003130 268.1565  91.9236 14.98328189 44008,6950.198,96.107,574.239,569.888,0.0
55269.0,STARLINK-5277,PAYLOAD,2023-11-03 13:21:52,14.98331524,0.0002925,70.001,45.6787,266.3323,93.7501,2.6419e-05,2.22e-06,0.0,0 STARLINK-5277,1 55269U 23010A   23307.55686300  .00000222  00000-0  26419-4 0  9993,2 55269  70.0010  45.6787 0002925 266.3323  93.7501 14.98331524 44673,6950.188,96.107,574.086,570.02,0.0
55269.0,STARLINK-5277,PAYLOAD,2023-11-03 16:34:09,14.98332539,0.0002954,70.001,45.3422,266.5205,93.5616,3.4929e-05,3.24e-06,0.0,0 STARLINK-5277,1 55269U 23010A   23307.69038225  .00000324  00000-0  34929-4 0  9993,2 55269  70.0010  45.3422 0002954 266.5205  93.5616 14.98332539 44693,6950.185,96.107,574.103,569.997,0.0
55269.0,STARLINK-5277,PAYLOAD,2023-11-04 00:34:48,14.98342054,0.0003308,70.0009,44.4997,263.8382,96.24,-0.00011431,-1.457e-05,0.0,0 STARLINK-5277,1 55269U 23010A   23308.02417684 -.00001457  00000-0 -11431-3 0  9993,2 55269  70.0009  44.4997 0003308 263.8382  96.2400 14.98342054 44153,6950.156,96.106,574.32,569.722,0.0
55269.0,STARLINK-5277,PAYLOAD,2023-11-04 10:11:37,14.98330499,0.0003164,70.0009,43.49,268.1098,91.9699,0.00011382,1.265e-05,0.0,0 STARLINK-5277,1 55269U 23010A   23308.42474199  .00001265  00000-0  11382-3 0  9991,2 55269  70.0009  43.4900 0003164 268.1098  91.9699 14.98330499 44217,6950.191,96.107,574.255,569.857,0.0
55269.0,STARLINK-5277,PAYLOAD,2023-11-04 13:23:52,14.98350047,0.0003258,70.0016,43.1535,269.4571,90.6215,0.00035393,4.135e-05,0.0,0 STARLINK-5277,1 55269U 23010A   23308.55824498  .00004135  00000-0  35393-3 0  9993,2 55269  70.0016  43.1535 0003258 269.4571  90.6215 14.98350047 44828,6950.131,96.106,574.26,569.732,0.0
55269.0,STARLINK-5277,PAYLOAD,2023-11-04 16:36:09,14.98340843,0.0002941,70.0011,42.818,265.2112,94.8711,4.8241e-05,4.83e-06,0.0,0 STARLINK-5277,1 55269U 23010A   23308.69177578  .00000483  00000-0  48241-4 0  9997,2 55269  70.0011  42.8180 0002941 265.2112  94.8711 14.98340843 44255,6950.159,96.106,574.068,569.98,0.0
55269.0,STARLINK-5277,PAYLOAD,2023-11-05 10:13:38,14.98335758,0.0002948,70.0018,40.9662,269.3695,90.7126,0.00020733,2.382e-05,0.0,0 STARLINK-5277,1 55269U 23010A   23309.42613624  .00002382  00000-0  20733-3 0  9991,2 55269  70.0018  40.9662 0002948 269.3695  90.7126 14.98335758 44360,6950.175,96.107,574.089,569.991,0.0
55269.0,STARLINK-5277,PAYLOAD,2023-11-05 13:25:53,14.983412,0.0002901,70.0017,40.6314,262.4648,97.6181,0.00022961,2.649e-05,0.0,0 STARLINK-5277,1 55269U 23010A   23309.55965143  .00002649  00000-0  22961-3 0  9992,2 55269  70.0017  40.6314 0002901 262.4648  97.6181 14.98341200 44974,6950.158,96.106,574.039,570.007,0.0
55269.0,STARLINK-5277,PAYLOAD,2023-11-05 16:38:09,14.98347873,0.0002797,70.0021,40.296,261.5486,98.5356,0.00029148,3.388e-05,0.0,0 STARLINK-5277,1 55269U 23010A   23309.69316611  .00003388  00000-0  29148-3 0  9992,2 55269  70.0021  40.2960 0002797 261.5486  98.5356 14.98347873 44409,6950.138,96.106,573.947,570.059,0.0
55269.0,STARLINK-5277,PAYLOAD,2023-11-06 11:51:45,14.9834797,0.0002951,70.0023,38.2723,261.6431,98.4393,0.00023289,2.688e-05,0.0,0 STARLINK-5277,1 55269U 23010A   23310.49428226  .00002688  00000-0  23289-3 0  9990,2 55269  70.0023  38.2723 0002951 261.6431  98.4393 14.98347970 44529,6950.137,96.106,574.053,569.951,0.0
55269.0,STARLINK-5277,PAYLOAD,2023-11-06 13:27:53,14.98349083,0.0002911,70.0022,38.1036,263.2722,96.8106,0.00024774,2.866e-05,0.0,0 STARLINK-5277,1 55269U 23010A   23310.56104125  .00002866  00000-0  24774-3 0  9995,2 55269  70.0022  38.1036 0002911 263.2722  96.8106 14.98349083 45129,6950.134,96.106,574.022,569.976,0.0
55269.0,STARLINK-5277,PAYLOAD,2023-11-06 15:04:01,14.98351603,0.000283,70.0024,37.9354,262.1405,97.9432,0.00029469,3.427e-05,0.0,0 STARLINK-5277,1 55269U 23010A   23310.62779918  .00003427  00000-0  29469-3 0  9990,2 55269  70.0024  37.9354 0002830 262.1405  97.9432 14.98351603 45133,6950.126,96.106,573.958,570.024,0.0
55269.0,STARLINK-5277,PAYLOAD,2023-11-07 11:53:49,14.98295975,0.0002923,70.0022,35.7475,272.8818,87.2006,-0.0007365,-8.862e-05,0.0,0 STARLINK-5277,1 55269U 23010A   23311.49571473 -.00008862  00000-0 -73650-3 0  9993,2 55269  70.0022  35.7475 0002923 272.8818  87.2006 14.98295975 44676,6950.298,96.109,574.195,570.132,0.0
55269.0,STARLINK-5277,PAYLOAD,2023-11-07 13:29:57,14.98294494,0.0002923,70.0022,35.5793,273.362,86.7205,-0.00073992,-8.902e-05,0.0,0 STARLINK-5277,1 55269U 23010A   23311.56247666 -.00008902  00000-0 -73992-3 0  9999,2 55269  70.0022  35.5793 0002923 273.3620  86.7205 14.98294494 45271,6950.303,96.109,574.199,570.136,0.0
55269.0,STARLINK-5277,PAYLOAD,2023-11-07 23:06:46,14.98310626,0.0002989,70.0036,34.5686,278.0998,81.9822,-0.00043037,-5.222e-05,0.0,0 STARLINK-5277,1 55269U 23010A   23311.96303448 -.00005222  00000-0 -43037-3 0  9993,2 55269  70.0036  34.5686 0002989 278.0998  81.9822 14.98310626 44747,6950.253,96.108,574.195,570.04,0.0
55269.0,STARLINK-5277,PAYLOAD,2023-11-08 11:55:50,14.98320557,0.000305,70.0029,33.2241,274.5024,85.5787,0.00012382,1.384e-05,0.0,0 STARLINK-5277,1 55269U 23010A   23312.49711664  .00001384  00000-0  12382-3 0  9997,2 55269  70.0029  33.2241 0003050 274.5024  85.5787 14.98320557 44826,6950.222,96.108,574.207,569.967,0.0
55269.0,STARLINK-5277,PAYLOAD,2023-11-08 13:31:58,14.9832403,0.0002763,70.0035,33.0559,262.7005,97.384,0.00016398,1.864e-05,0.0,0 STARLINK-5277,1 55269U 23010A   23312.56387433  .00001864  00000-0  16398-3 0  9992,2 55269  70.0035  33.0559 0002763 262.7005  97.3840 14.98324030 45429,6950.211,96.107,573.997,570.156,0.0
55269.0,STARLINK-5277,PAYLOAD,2023-11-08 15:08:06,14.98325092,0.000286,70.0033,32.8877,263.1332,96.9501,0.00019948,2.288e-05,0.0,0 STARLINK-5277,1 55269U 23010A   23312.63063422  .00002288  00000-0  19948-3 0  9994,2 55269  70.0033  32.8877 0002860 263.1332  96.9501 14.98325092 45432,6950.208,96.107,574.061,570.085,0.0
55269.0,STARLINK-5277,PAYLOAD,2023-11-08 23:08:46,14.98333128,0.0002858,70.0047,32.0468,290.3855,69.6997,0.0002848,3.307e-05,0.0,0 STARLINK-5277,1 55269U 23010A   23312.96443240  .00003307  00000-0  28480-3 0  9994,2 55269  70.0047  32.0468 0002858 290.3855  69.6997 14.98333128 44898,6950.183,96.107,574.035,570.062,0.0
55269.0,STARLINK-5277,PAYLOAD,2023-11-09 11:57:51,14.98315286,0.0002677,70.0029,30.7008,273.1441,86.9412,0.00073566,8.692e-05,0.0,0 STARLINK-5277,1 55269U 23010A   23313.49851476  .00008692  00000-0  73566-3 0  9994,2 55269  70.0029  30.7008 0002677 273.1441  86.9412 14.98315286 44970,6950.238,96.108,573.964,570.243,0.0
55269.0,STARLINK-5277,PAYLOAD,2023-11-09 13:34:01,14.98292192,0.0002877,70.0031,30.5326,290.7656,69.3195,0.00061091,7.197e-05,0.0,0 STARLINK-5277,1 55269U 23010A   23313.56529297  .00007197  00000-0  61091-3 0  9994,2 55269  70.0031  30.5326 0002877 290.7656  69.3195 14.98292192 45579,6950.31,96.109,574.174,570.175,0.0
55269.0,STARLINK-5277,PAYLOAD,2023-11-09 15:10:07,14.98325152,0.0002979,70.0027,30.3641,291.9643,68.12,0.00074477,8.804e-05,0.0,0 STARLINK-5277,1 55269U 23010A   23313.63202995  .00008804  00000-0  74477-3 0  9993,2 55269  70.0027  30.3641 0002979 291.9643  68.1200 14.98325152 44996,6950.208,96.107,574.143,570.002,0.0
55269.0,STARLINK-5277,PAYLOAD,2023-11-10 13:36:00,14.98333007,0.0002985,70.002,28.0057,279.1191,80.963,0.00013579,1.528e-05,0.0,0 STARLINK-5277,1 55269U 23010A   23314.56667228  .00001528  00000-0  13579-3 0  9992,2 55269  70.0020  28.0057 0002985 279.1191  80.9630 14.98333007 45726,6950.184,96.107,574.123,569.974,0.0
55269.0,STARLINK-5277,PAYLOAD,2023-11-10 15:12:07,14.98351622,0.0002709,70.0015,27.8367,274.7558,85.3291,-5.8928e-05,-7.96e-06,0.0,0 STARLINK-5277,1 55269U 23010A   23314.63342133 -.00000796  00000-0 -58928-4 0  9991,2 55269  70.0015  27.8367 0002709 274.7558  85.3291 14.98351622 45144,6950.126,96.106,573.874,570.108,0.0
55269.0,STARLINK-5277,PAYLOAD,2023-11-11 04:01:12,14.9834429,0.0003089,70.002,26.4901,279.7375,80.3435,-5.2585e-05,-7.21e-06,0.0,0 STARLINK-5277,1 55269U 23010A   23315.16750334 -.00000721  00000-0 -52585-4 0  9997,2 55269  70.0020  26.4901 0003089 279.7375  80.3435 14.98344290 45220,6950.149,96.106,574.161,569.867,0.0
55269.0,STARLINK-5277,PAYLOAD,2023-11-11 13:38:01,14.98335513,0.0002554,70.0021,25.4816,289.4178,70.6705,-8.2517e-05,-1.077e-05,0.0,0 STARLINK-5277,1 55269U 23010A   23315.56806787 -.00001077  00000-0 -82517-4 0  9998,2 55269  70.0021  25.4816 0002554 289.4178  70.6705 14.98335513 45871,6950.176,96.107,573.816,570.266,0.0
